$$SOE
2460154.500000000, A.D. 2023-Jul-29 00:00:00.0000, -5.888878703141630E+08, -4.278064966383122E+08, 4.865166836012061E+07,
2460161.500000000, A.D. 2023-Aug-05 00:00:00.0000, -5.845873686069719E+08, -4.335502852679960E+08, 4.871605597142838E+07,
2460168.500000000, A.D. 2023-Aug-12 00:00:00.0000, -5.802138147173105E+08, -4.392398635917916E+08, 4.877435177182750E+07,
2460175.500000000, A.D. 2023-Aug-19 00:00:00.0000, -5.757677326622210E+08, -4.448745032055078E+08, 4.882654647689928E+07,
2460182.500000000, A.D. 2023-Aug-26 00:00:00.0000, -5.712496494979426E+08, -4.504534777638495E+08, 4.887263101830627E+07,
2460189.500000000, A.D. 2023-Sep-02 00:00:00.0000, -5.666600954207456E+08, -4.559760628754885E+08, 4.891259654492159E+07,
2460196.500000000, A.D. 2023-Sep-09 00:00:00.0000, -5.619996038567770E+08, -4.614415361123794E+08, 4.894643441281332E+07,
2460203.500000000, A.D. 2023-Sep-16 00:00:00.0000, -5.572687113725030E+08, -4.668491771913057E+08, 4.897413614395340E+07,
2460210.500000000, A.D. 2023-Sep-23 00:00:00.0000, -5.524679569893422E+08, -4.721982680408349E+08, 4.899569333896410E+07,
2460217.500000000, A.D. 2023-Sep-30 00:00:00.0000, -5.475978812419900E+08, -4.774880915628626E+08, 4.901109767244720E+07,
2460224.500000000, A.D. 2023-Oct-07 00:00:00.0000, -5.426590273340067E+08, -4.827179296315209E+08, 4.902034114252892E+07,
2460231.500000000, A.D. 2023-Oct-14 00:00:00.0000, -5.376519433507208E+08, -4.878870636428068E+08, 4.902341620863146E+07,
2460238.500000000, A.D. 2023-Oct-21 00:00:00.0000, -5.325771823010942E+08, -4.929947760124142E+08, 4.902031565253320E+07,
2460245.500000000, A.D. 2023-Oct-28 00:00:00.0000, -5.274353014130497E+08, -4.980403503615547E+08, 4.901103247832286E+07,
2460252.500000000, A.D. 2023-Nov-04 00:00:00.0000, -5.222268619322072E+08, -5.030230711610051E+08, 4.899555990318826E+07,
2460259.500000000, A.D. 2023-Nov-11 00:00:00.0000, -5.169524292463539E+08, -5.079422234332471E+08, 4.897389137397316E+07,
2460266.500000000, A.D. 2023-Nov-18 00:00:00.0000, -5.116125731161159E+08, -5.127970925771108E+08, 4.894602058435613E+07,
2460273.500000000, A.D. 2023-Nov-25 00:00:00.0000, -5.062078679390673E+08, -5.175869642924843E+08, 4.891194148804715E+07,
2460280.500000000, A.D. 2023-Dec-02 00:00:00.0000, -5.007388930191846E+08, -5.223111246164014E+08, 4.887164830469367E+07,
2460287.500000000, A.D. 2023-Dec-09 00:00:00.0000, -4.952062327639279E+08, -5.269688601294931E+08, 4.882513550667226E+07,
2460294.500000000, A.D. 2023-Dec-16 00:00:00.0000, -4.896104765215128E+08, -5.315594583203088E+08, 4.877239776147309E+07,
2460301.500000000, A.D. 2023-Dec-23 00:00:00.0000, -4.839522177100148E+08, -5.360822074200841E+08, 4.871342985386714E+07,
2460308.500000000, A.D. 2023-Dec-30 00:00:00.0000, -4.782320535785567E+08, -5.405363946586392E+08, 4.864822679641977E+07,
2460315.500000000, A.D. 2024-Jan-06 00:00:00.0000, -4.724505873729487E+08, -5.449213053021383E+08, 4.857678409780866E+07,
2460322.500000000, A.D. 2024-Jan-13 00:00:00.0000, -4.666084297331644E+08, -5.492362242798481E+08, 4.849909775005877E+07,
2460329.500000000, A.D. 2024-Jan-20 00:00:00.0000, -4.607061980994122E+08, -5.534804373153939E+08, 4.841516407433844E+07,
2460336.500000000, A.D. 2024-Jan-27 00:00:00.0000, -4.547445161556339E+08, -5.576532309100541E+08, 4.832497966445908E+07,
2460343.500000000, A.D. 2024-Feb-03 00:00:00.0000, -4.487240137386377E+08, -5.617538921264223E+08, 4.822854138957858E+07,
2460350.500000000, A.D. 2024-Feb-10 00:00:00.0000, -4.426453269352461E+08, -5.657817084634578E+08, 4.812584640662187E+07,
2460357.500000000, A.D. 2024-Feb-17 00:00:00.0000, -4.365090982285563E+08, -5.697359678151222E+08, 4.801689217013863E+07,
2460364.500000000, A.D. 2024-Feb-24 00:00:00.0000, -4.303159766573182E+08, -5.736159584980963E+08, 4.790167643736598E+07,
2460371.500000000, A.D. 2024-Mar-02 00:00:00.0000, -4.240666179591860E+08, -5.774209693814361E+08, 4.778019726306695E+07,
2460378.500000000, A.D. 2024-Mar-09 00:00:00.0000, -4.177616845592619E+08, -5.811502901813235E+08, 4.765245296623307E+07,
2460385.500000000, A.D. 2024-Mar-16 00:00:00.0000, -4.114018450089021E+08, -5.848032117238358E+08, 4.751844204850227E+07,
2460392.500000000, A.D. 2024-Mar-23 00:00:00.0000, -4.049877729785919E+08, -5.883790250667169E+08, 4.737816316441649E+07,
2460399.500000000, A.D. 2024-Mar-30 00:00:00.0000, -3.985201480460836E+08, -5.918770195068326E+08, 4.723161534686789E+07,
2460406.500000000, A.D. 2024-Apr-06 00:00:00.0000, -3.919996580236850E+08, -5.952964828409598E+08, 4.707879818901163E+07,
2460413.500000000, A.D. 2024-Apr-13 00:00:00.0000, -3.854269992737116E+08, -5.986367030437822E+08, 4.691971172530693E+07,
2460420.500000000, A.D. 2024-Apr-20 00:00:00.0000, -3.788028759645035E+08, -6.018969686865449E+08, 4.675435631781453E+07,
2460427.500000000, A.D. 2024-Apr-27 00:00:00.0000, -3.721279997841188E+08, -6.050765686576200E+08, 4.658273264106199E+07,
2460434.500000000, A.D. 2024-May-04 00:00:00.0000, -3.654030900237505E+08, -6.081747918881743E+08, 4.640484169997266E+07,
2460441.500000000, A.D. 2024-May-11 00:00:00.0000, -3.586288737924566E+08, -6.111909271845418E+08, 4.622068485075542E+07,
2460448.500000000, A.D. 2024-May-18 00:00:00.0000, -3.518060862811711E+08, -6.141242631454908E+08, 4.603026381912848E+07,
2460455.500000000, A.D. 2024-May-25 00:00:00.0000, -3.449354710512764E+08, -6.169740881713138E+08, 4.583358071320683E+07,
2460462.500000000, A.D. 2024-Jun-01 00:00:00.0000, -3.380177802879156E+08, -6.197396906219904E+08, 4.563063802109823E+07,
2460469.500000000, A.D. 2024-Jun-08 00:00:00.0000, -3.310537747717342E+08, -6.224203591472157E+08, 4.542143856899628E+07,
2460476.500000000, A.D. 2024-Jun-15 00:00:00.0000, -3.240442231695942E+08, -6.250153826430826E+08, 4.520598544795805E+07,
2460483.500000000, A.D. 2024-Jun-22 00:00:00.0000, -3.169899016495209E+08, -6.275240486600981E+08, 4.498428209787899E+07,
2460490.500000000, A.D. 2024-Jun-29 00:00:00.0000, -3.098915959414008E+08, -6.299456420831658E+08, 4.475633259470710E+07,
2460497.500000000, A.D. 2024-Jul-06 00:00:00.0000, -3.027501031983384E+08, -6.322794465548341E+08, 4.452214169656006E+07,
2460504.500000000, A.D. 2024-Jul-13 00:00:00.0000, -2.955662317096046E+08, -6.345247458181311E+08, 4.428171470095757E+07,
2460511.500000000, A.D. 2024-Jul-20 00:00:00.0000, -2.883408004511049E+08, -6.366808238305014E+08, 4.403505738931814E+07,
2460518.500000000, A.D. 2024-Jul-27 00:00:00.0000, -2.810746391294970E+08, -6.387469646083395E+08, 4.378217604050130E+07,
2460525.500000000, A.D. 2024-Aug-03 00:00:00.0000, -2.737685884470612E+08, -6.407224521770674E+08, 4.352307745765272E+07,
2460532.500000000, A.D. 2024-Aug-10 00:00:00.0000, -2.664235004215583E+08, -6.426065706312106E+08, 4.325776899263731E+07,
2460539.500000000, A.D. 2024-Aug-17 00:00:00.0000, -2.590402387137753E+08, -6.443986042827388E+08, 4.298625856531018E+07,
2460546.500000000, A.D. 2024-Aug-24 00:00:00.0000, -2.516196789350193E+08, -6.460978379199023E+08, 4.270855467303950E+07,
2460553.500000000, A.D. 2024-Aug-31 00:00:00.0000, -2.441627088191032E+08, -6.477035572380019E+08, 4.242466637463561E+07,
2460560.500000000, A.D. 2024-Sep-07 00:00:00.0000, -2.366702278935423E+08, -6.492150493156193E+08, 4.213460322526035E+07,
2460567.500000000, A.D. 2024-Sep-14 00:00:00.0000, -2.291431465649496E+08, -6.506316021402308E+08, 4.183837523566756E+07,
2460574.500000000, A.D. 2024-Sep-21 00:00:00.0000, -2.215823866475489E+08, -6.519525027702154E+08, 4.153599307534474E+07,
2460581.500000000, A.D. 2024-Sep-28 00:00:00.0000, -2.139888838221006E+08, -6.531770373605216E+08, 4.122746830026171E+07,
2460588.500000000, A.D. 2024-Oct-05 00:00:00.0000, -2.063635883552602E+08, -6.543044930503997E+08, 4.091281326859781E+07,
2460595.500000000, A.D. 2024-Oct-12 00:00:00.0000, -1.987074644399092E+08, -6.553341587334316E+08, 4.059204102099660E+07,
2460602.500000000, A.D. 2024-Oct-19 00:00:00.0000, -1.910214899073535E+08, -6.562653249809040E+08, 4.026516526378620E+07,
2460609.500000000, A.D. 2024-Oct-26 00:00:00.0000, -1.833066563437042E+08, -6.570972839201262E+08, 3.993220039264721E+07,
2460616.500000000, A.D. 2024-Nov-02 00:00:00.0000, -1.755639693530374E+08, -6.578293292162780E+08, 3.959316152102840E+07,
2460623.500000000, A.D. 2024-Nov-09 00:00:00.0000, -1.677944488706686E+08, -6.584607561372508E+08, 3.924806450619665E+07,
2460630.500000000, A.D. 2024-Nov-16 00:00:00.0000, -1.599991295005681E+08, -6.589908617013587E+08, 3.889692597064194E+07,
2460637.500000000, A.D. 2024-Nov-23 00:00:00.0000, -1.521790608299233E+08, -6.594189449579513E+08, 3.853976331055251E+07,
2460644.500000000, A.D. 2024-Nov-30 00:00:00.0000, -1.443353075125101E+08, -6.597443074437200E+08, 3.817659466888672E+07,
2460651.500000000, A.D. 2024-Dec-07 00:00:00.0000, -1.364689487014191E+08, -6.599662533942329E+08, 3.780743886907968E+07,
2460658.500000000, A.D. 2024-Dec-14 00:00:00.0000, -1.285810775197650E+08, -6.600840884868002E+08, 3.743231547271597E+07,
2460665.500000000, A.D. 2024-Dec-21 00:00:00.0000, -1.206728028878290E+08, -6.600971183553559E+08, 3.705124507256287E+07,
2460672.500000000, A.D. 2024-Dec-28 00:00:00.0000, -1.127452517338212E+08, -6.600046498447820E+08, 3.666424939768481E+07,
2460679.500000000, A.D. 2025-Jan-04 00:00:00.0000, -1.047995689907837E+08, -6.598059926290764E+08, 3.627135118683583E+07,
2460686.500000000, A.D. 2025-Jan-11 00:00:00.0000, -9.683691720084274E+07, -6.595004595341166E+08, 3.587257413310885E+07,
2460693.500000000, A.D. 2025-Jan-18 00:00:00.0000, -8.885847664365506E+07, -6.590873664842021E+08, 3.546794290914321E+07,
2460700.500000000, A.D. 2025-Jan-25 00:00:00.0000, -8.086544574537192E+07, -6.585660325472289E+08, 3.505748321204451E+07,
2460707.500000000, A.D. 2025-Feb-01 00:00:00.0000, -7.285904157836111E+07, -6.579357801089739E+08, 3.464122180843678E+07,
2460714.500000000, A.D. 2025-Feb-08 00:00:00.0000, -6.484050039296861E+07, -6.571959351572196E+08, 3.421918657613307E+07,
$$EOE